{
  "type": "FeatureCollection",
  "features": [
    {
      "type": "Feature",
      "properties": {
        "norad_id": 31761,
        "name": "FENGYUN 1C DEB",
        "group": "fengyun-1c-debris",
        "lat": -15.206169199229741,
        "lon": 24.433984271957062,
        "alt_km": 808.532908160294,
        "timestamp": "2025-12-08T17:43:05.215343+00:00",
        "meta_object_name": "FENGYUN 1C DEB",
        "meta_object_id": "1999-025CFL",
        "meta_epoch": "2025-12-07T09:56:19.759776",
        "meta_mean_motion": 14.03309134,
        "meta_eccentricity": 0.04730733,
        "meta_inclination": 98.6327,
        "meta_ra_of_asc_node": 205.5384,
        "meta_arg_of_pericenter": 278.4671,
        "meta_mean_anomaly": 76.3165,
        "meta_ephemeris_type": 0,
        "meta_classification_type": "U",
        "meta_norad_cat_id": 31761,
        "meta_element_set_no": 999,
        "meta_rev_at_epoch": 58036,
        "meta_bstar": 0.0031997876,
        "meta_mean_motion_dot": 0.00013643,
        "meta_mean_motion_ddot": 0,
        "tle_line1": "1 31761U 99025CFL 25341.41411759  .00013643  00000+0  31998-2 0  9998",
        "tle_line2": "2 31761  98.6327 205.5384 0473073 278.4671  76.3165 14.03309134580369"
      },
      "geometry": {
        "type": "Point",
        "coordinates": [
          24.433984271957062,
          -15.206169199229741
        ]
      }
    },
    {
      "type": "Feature",
      "properties": {
        "norad_id": 31763,
        "name": "FENGYUN 1C DEB",
        "group": "fengyun-1c-debris",
        "lat": -80.98865657398063,
        "lon": 162.66186393943977,
        "alt_km": 1474.5507287024557,
        "timestamp": "2025-12-08T17:43:05.215354+00:00",
        "meta_object_name": "FENGYUN 1C DEB",
        "meta_object_id": "1999-025CFN",
        "meta_epoch": "2025-12-08T05:51:53.611200",
        "meta_mean_motion": 13.50313879,
        "meta_eccentricity": 0.05471877,
        "meta_inclination": 98.5212,
        "meta_ra_of_asc_node": 91.2677,
        "meta_arg_of_pericenter": 81.2412,
        "meta_mean_anomaly": 313.6008,
        "meta_ephemeris_type": 0,
        "meta_classification_type": "U",
        "meta_norad_cat_id": 31763,
        "meta_element_set_no": 999,
        "meta_rev_at_epoch": 90945,
        "meta_bstar": 0.0011696232,
        "meta_mean_motion_dot": 1.885e-05,
        "meta_mean_motion_ddot": 0,
        "tle_line1": "1 31763U 99025CFN 25342.24437050  .00001885  00000+0  11696-2 0  9992",
        "tle_line2": "2 31763  98.5212  91.2677 0547187  81.2412 313.6008 13.50313879909459"
      },
      "geometry": {
        "type": "Point",
        "coordinates": [
          162.66186393943977,
          -80.98865657398063
        ]
      }
    },
    {
      "type": "Feature",
      "properties": {
        "norad_id": 31766,
        "name": "FENGYUN 1C DEB",
        "group": "fengyun-1c-debris",
        "lat": -9.075489594101278,
        "lon": 159.2543840930329,
        "alt_km": 900.5030091943827,
        "timestamp": "2025-12-08T17:43:05.215364+00:00",
        "meta_object_name": "FENGYUN 1C DEB",
        "meta_object_id": "1999-025CFR",
        "meta_epoch": "2025-12-05T17:02:42.241632",
        "meta_mean_motion": 14.0527359,
        "meta_eccentricity": 0.00736647,
        "meta_inclination": 98.8158,
        "meta_ra_of_asc_node": 337.7312,
        "meta_arg_of_pericenter": 310.9952,
        "meta_mean_anomaly": 48.486,
        "meta_ephemeris_type": 0,
        "meta_classification_type": "U",
        "meta_norad_cat_id": 31766,
        "meta_element_set_no": 999,
        "meta_rev_at_epoch": 63987,
        "meta_bstar": 0.00041011226,
        "meta_mean_motion_dot": 6.36e-06,
        "meta_mean_motion_ddot": 0,
        "tle_line1": "1 31766U 99025CFR 25339.71021113  .00000636  00000+0  41011-3 0  9990",
        "tle_line2": "2 31766  98.8158 337.7312 0073664 310.9952  48.4860 14.05273590639874"
      },
      "geometry": {
        "type": "Point",
        "coordinates": [
          159.2543840930329,
          -9.075489594101278
        ]
      }
    },
    {
      "type": "Feature",
      "properties": {
        "norad_id": 31767,
        "name": "FENGYUN 1C DEB",
        "group": "fengyun-1c-debris",
        "lat": 11.83620551449987,
        "lon": -165.59261132630357,
        "alt_km": 876.2030959719659,
        "timestamp": "2025-12-08T17:43:05.215375+00:00",
        "meta_object_name": "FENGYUN 1C DEB",
        "meta_object_id": "1999-025CFS",
        "meta_epoch": "2025-12-07T08:32:11.520096",
        "meta_mean_motion": 14.04950995,
        "meta_eccentricity": 0.00419502,
        "meta_inclination": 98.823,
        "meta_ra_of_asc_node": 11.1978,
        "meta_arg_of_pericenter": 84.7824,
        "meta_mean_anomaly": 293.7404,
        "meta_ephemeris_type": 0,
        "meta_classification_type": "U",
        "meta_norad_cat_id": 31767,
        "meta_element_set_no": 999,
        "meta_rev_at_epoch": 94750,
        "meta_bstar": 0.00021662596,
        "meta_mean_motion_dot": 3.09e-06,
        "meta_mean_motion_ddot": 0,
        "tle_line1": "1 31767U 99025CFS 25341.35568889  .00000309  00000+0  21663-3 0  9998",
        "tle_line2": "2 31767  98.8230  11.1978 0041950  84.7824 293.7404 14.04950995947505"
      },
      "geometry": {
        "type": "Point",
        "coordinates": [
          -165.59261132630357,
          11.83620551449987
        ]
      }
    },
    {
      "type": "Feature",
      "properties": {
        "norad_id": 31768,
        "name": "FENGYUN 1C DEB",
        "group": "fengyun-1c-debris",
        "lat": -24.0382939449455,
        "lon": 59.21439392563796,
        "alt_km": 630.1474034960138,
        "timestamp": "2025-12-08T17:43:05.215386+00:00",
        "meta_object_name": "FENGYUN 1C DEB",
        "meta_object_id": "1999-025CFT",
        "meta_epoch": "2025-12-07T00:05:23.203392",
        "meta_mean_motion": 14.75847078,
        "meta_eccentricity": 0.00263444,
        "meta_inclination": 99.0428,
        "meta_ra_of_asc_node": 53.2026,
        "meta_arg_of_pericenter": 359.844,
        "meta_mean_anomaly": 125.5614,
        "meta_ephemeris_type": 0,
        "meta_classification_type": "U",
        "meta_norad_cat_id": 31768,
        "meta_element_set_no": 999,
        "meta_rev_at_epoch": 96788,
        "meta_bstar": 0.0039918663,
        "meta_mean_motion_dot": 0.00027585,
        "meta_mean_motion_ddot": 0,
        "tle_line1": "1 31768U 99025CFT 25341.00374078  .00027585  00000+0  39919-2 0  9993",
        "tle_line2": "2 31768  99.0428  53.2026 0026344 359.8440 125.5614 14.75847078967882"
      },
      "geometry": {
        "type": "Point",
        "coordinates": [
          59.21439392563796,
          -24.0382939449455
        ]
      }
    },
    {
      "type": "Feature",
      "properties": {
        "norad_id": 31772,
        "name": "FENGYUN 1C DEB",
        "group": "fengyun-1c-debris",
        "lat": -68.83388919418073,
        "lon": -76.95443651275122,
        "alt_km": 955.3390373575558,
        "timestamp": "2025-12-08T17:43:05.215396+00:00",
        "meta_object_name": "FENGYUN 1C DEB",
        "meta_object_id": "1999-025CFX",
        "meta_epoch": "2025-12-02T05:33:26.479008",
        "meta_mean_motion": 14.11635308,
        "meta_eccentricity": 0.0135819,
        "meta_inclination": 98.4716,
        "meta_ra_of_asc_node": 254.2606,
        "meta_arg_of_pericenter": 143.9036,
        "meta_mean_anomaly": 217.1401,
        "meta_ephemeris_type": 0,
        "meta_classification_type": "U",
        "meta_norad_cat_id": 31772,
        "meta_element_set_no": 999,
        "meta_rev_at_epoch": 70735,
        "meta_bstar": 0.0011634,
        "meta_mean_motion_dot": 2.268e-05,
        "meta_mean_motion_ddot": 0,
        "tle_line1": "1 31772U 99025CFX 25336.23155647  .00002268  00000+0  11634-2 0  9991",
        "tle_line2": "2 31772  98.4716 254.2606 0135819 143.9036 217.1401 14.11635308707355"
      },
      "geometry": {
        "type": "Point",
        "coordinates": [
          -76.95443651275122,
          -68.83388919418073
        ]
      }
    },
    {
      "type": "Feature",
      "properties": {
        "norad_id": 31773,
        "name": "FENGYUN 1C DEB",
        "group": "fengyun-1c-debris",
        "lat": -25.53732693380276,
        "lon": 148.93826156326278,
        "alt_km": 631.7523806449781,
        "timestamp": "2025-12-08T17:43:05.215406+00:00",
        "meta_object_name": "FENGYUN 1C DEB",
        "meta_object_id": "1999-025CFY",
        "meta_epoch": "2025-12-08T05:22:19.576416",
        "meta_mean_motion": 14.72657344,
        "meta_eccentricity": 0.00387845,
        "meta_inclination": 98.9512,
        "meta_ra_of_asc_node": 332.6908,
        "meta_arg_of_pericenter": 192.9231,
        "meta_mean_anomaly": 167.0984,
        "meta_ephemeris_type": 0,
        "meta_classification_type": "U",
        "meta_norad_cat_id": 31773,
        "meta_element_set_no": 999,
        "meta_rev_at_epoch": 65108,
        "meta_bstar": 0.0024881377,
        "meta_mean_motion_dot": 0.00016017,
        "meta_mean_motion_ddot": 0,
        "tle_line1": "1 31773U 99025CFY 25342.22383769  .00016017  00000+0  24881-2 0  9991",
        "tle_line2": "2 31773  98.9512 332.6908 0038784 192.9231 167.0984 14.72657344651083"
      },
      "geometry": {
        "type": "Point",
        "coordinates": [
          148.93826156326278,
          -25.53732693380276
        ]
      }
    }
  ]
}